Results
*******************************************************************************
 Revised: Aug 07, 2025               Surtur / (Saturn)                      648

 Newly discovered irregular Saturnian satellite
*******************************************************************************


*******************************************************************************
Ephemeris / API_USER Tue Jan 13 23:31:25 2026 Pasadena, USA      / Horizons    
*******************************************************************************
Target body name: Surtur (648)                    {source: sat456_merged_DE440}
Center body name: Earth (399)                     {source: sat456_merged_DE440}
Center-site name: GEOCENTRIC
*******************************************************************************
Start time      : A.D. 2020-Jan-01 00:00:00.0000 UT      
Stop  time      : A.D. 2020-Dec-20 00:00:00.0000 UT      
Step-size       : 1440 minutes
*******************************************************************************
Target pole/equ : undefined
Target radii    : undefined                                                    
Center geodetic : 0.0, 0.0, -6378.137             {E-lon(deg),Lat(deg),Alt(km)}
Center cylindric: 0.0, 0.0, 0.0                   {E-lon(deg),Dxy(km),Dz(km)}
Center pole/equ : ITRF93                          {East-longitude positive}
Center radii    : 6378.137, 6378.137, 6356.752 km {Equator_a, b, pole_c}       
Target primary  : Saturn
Vis. interferer : MOON (R_eq= 1737.400) km        {source: sat456_merged_DE440}
Rel. light bend : Sun                             {source: sat456_merged_DE440}
Rel. lght bnd GM: 1.3271E+11 km^3/s^2                                          
Atmos refraction: NO (AIRLESS)
RA format       : HMS
Time format     : CAL 
Calendar mode   : Mixed Julian/Gregorian
EOP file        : eop.260113.p260411                                           
EOP coverage    : DATA-BASED 1962-JAN-20 TO 2026-JAN-13. PREDICTS-> 2026-APR-10
Units conversion: 1 au= 149597870.700 km, c= 299792.458 km/s, 1 day= 86400.0 s 
Table cut-offs 1: Elevation (-90.0deg=NO ),Airmass (>38.000=NO), Daylight (NO )
Table cut-offs 2: Solar elongation (  0.0,180.0=NO ),Local Hour Angle( 0.0=NO )
Table cut-offs 3: RA/DEC angular rate (     0.0=NO )                           
**************************************************************************************************************************
 Date__(UT)__HR:MN     R.A._____(ICRF)_____DEC    APmag   S-brt             delta      deldot     S-O-T /r     S-T-O  Cnst
**************************************************************************************************************************
$$SOE
 2020-Oct-22 00:00     19 47 26.02 -21 16 13.3     n.a.    n.a.  9.87242464567147  27.5914353   86.1373 /T    5.7810   Sgr
 2020-Oct-23 00:00     19 47 36.66 -21 15 50.7     n.a.    n.a.  9.88835060117334  27.5570464   85.1836 /T    5.7726   Sgr
 2020-Oct-24 00:00     19 47 47.70 -21 15 27.1     n.a.    n.a.  9.90425443110282  27.5148482   84.2310 /T    5.7625   Sgr
 2020-Oct-25 00:00     19 47 59.15 -21 15 02.3     n.a.    n.a.  9.92013167475959  27.4650078   83.2796 /T    5.7509   Sgr
 2020-Oct-26 00:00     19 48 10.99 -21 14 36.5     n.a.    n.a.  9.93597796015286  27.4076659   82.3292 /T    5.7377   Sgr
 2020-Oct-27 00:00     19 48 23.23 -21 14 09.6     n.a.    n.a.  9.95178899019875  27.3429421   81.3800 /T    5.7230   Sgr
 2020-Oct-28 00:00     19 48 35.85 -21 13 41.6     n.a.    n.a.  9.96756053171166  27.2709387   80.4318 /T    5.7067   Sgr
 2020-Oct-29 00:00     19 48 48.87 -21 13 12.6     n.a.    n.a.  9.98328840652119  27.1917441   79.4846 /T    5.6889   Sgr
 2020-Oct-30 00:00     19 49 02.28 -21 12 42.5     n.a.    n.a.  9.99896848375385  27.1054339   78.5385 /T    5.6696   Sgr
 2020-Oct-31 00:00     19 49 16.06 -21 12 11.4     n.a.    n.a.  10.0145966724378  27.0120706   77.5934 /T    5.6488   Sgr
 2020-Nov-01 00:00     19 49 30.23 -21 11 39.1     n.a.    n.a.  10.0301689139021  26.9117034   76.6493 /T    5.6265   Sgr
 2020-Nov-02 00:00     19 49 44.77 -21 11 05.8     n.a.    n.a.  10.0456811737917  26.8043672   75.7062 /T    5.6027   Sgr
 2020-Nov-03 00:00     19 49 59.68 -21 10 31.5     n.a.    n.a.  10.0611294337950  26.6900826   74.7640 /T    5.5774   Sgr
 2020-Nov-04 00:00     19 50 14.96 -21 09 56.1     n.a.    n.a.  10.0765096832938  26.5688558   73.8227 /T    5.5507   Sgr
 2020-Nov-05 00:00     19 50 30.62 -21 09 19.7     n.a.    n.a.  10.0918179110858  26.4406785   72.8824 /T    5.5225   Sgr
 2020-Nov-06 00:00     19 50 46.63 -21 08 42.2     n.a.    n.a.  10.1070500971153  26.3055282   71.9429 /T    5.4929   Sgr
 2020-Nov-07 00:00     19 51 03.01 -21 08 03.6     n.a.    n.a.  10.1222022039001  26.1633669   71.0043 /T    5.4619   Sgr
 2020-Nov-08 00:00     19 51 19.74 -21 07 24.0     n.a.    n.a.  10.1372701672063  26.0141397   70.0665 /T    5.4295   Sgr
 2020-Nov-09 00:00     19 51 36.83 -21 06 43.4     n.a.    n.a.  10.1522498856949  25.8577727   69.1296 /T    5.3956   Sgr
 2020-Nov-10 00:00     19 51 54.27 -21 06 01.7     n.a.    n.a.  10.1671372099701  25.6941737   68.1935 /T    5.3604   Sgr
 2020-Nov-11 00:00     19 52 12.06 -21 05 19.0     n.a.    n.a.  10.1819279328053  25.5232360   67.2583 /T    5.3238   Sgr
 2020-Nov-12 00:00     19 52 30.20 -21 04 35.2     n.a.    n.a.  10.1966177842513  25.3448520   66.3239 /T    5.2858   Sgr
 2020-Nov-13 00:00     19 52 48.67 -21 03 50.4     n.a.    n.a.  10.2112024370620  25.1589356   65.3903 /T    5.2465   Sgr
 2020-Nov-14 00:00     19 53 07.48 -21 03 04.6     n.a.    n.a.  10.2256775278582  24.9654531   64.4575 /T    5.2058   Sgr
 2020-Nov-15 00:00     19 53 26.63 -21 02 17.7     n.a.    n.a.  10.2400386959874  24.7644515   63.5256 /T    5.1638   Sgr
 2020-Nov-16 00:00     19 53 46.11 -21 01 29.9     n.a.    n.a.  10.2542816351616  24.5560724   62.5946 /T    5.1205   Sgr
 2020-Nov-17 00:00     19 54 05.91 -21 00 41.0     n.a.    n.a.  10.2684021460511  24.3405407   61.6644 /T    5.0759   Sgr
 2020-Nov-18 00:00     19 54 26.03 -20 59 51.1     n.a.    n.a.  10.2823961761770  24.1181337   60.7351 /T    5.0301   Sgr
 2020-Nov-19 00:00     19 54 46.47 -20 59 00.1     n.a.    n.a.  10.2962598386795  23.8891415   59.8067 /T    4.9830   Sgr
 2020-Nov-20 00:00     19 55 07.21 -20 58 08.2     n.a.    n.a.  10.3099894102709  23.6538363   58.8792 /T    4.9346   Sgr
 2020-Nov-21 00:00     19 55 28.27 -20 57 15.3     n.a.    n.a.  10.3235813152269  23.4124553   57.9526 /T    4.8850   Sgr
 2020-Nov-22 00:00     19 55 49.62 -20 56 21.3     n.a.    n.a.  10.3370321038695  23.1651982   57.0269 /T    4.8343   Sgr
 2020-Nov-23 00:00     19 56 11.27 -20 55 26.4     n.a.    n.a.  10.3503384318740  22.9122313   56.1020 /T    4.7823   Sgr
 2020-Nov-24 00:00     19 56 33.21 -20 54 30.5     n.a.    n.a.  10.3634970435116  22.6536964   55.1780 /T    4.7292   Sgr
 2020-Nov-25 00:00     19 56 55.44 -20 53 33.6     n.a.    n.a.  10.3765047593668  22.3897171   54.2548 /T    4.6749   Sgr
 2020-Nov-26 00:00     19 57 17.95 -20 52 35.8     n.a.    n.a.  10.3893584676297  22.1204044   53.3325 /T    4.6195   Sgr
 2020-Nov-27 00:00     19 57 40.74 -20 51 37.0     n.a.    n.a.  10.4020551175403  21.8458590   52.4109 /T    4.5630   Sgr
 2020-Nov-28 00:00     19 58 03.80 -20 50 37.2     n.a.    n.a.  10.4145917135525  21.5661713   51.4901 /T    4.5054   Sgr
 2020-Nov-29 00:00     19 58 27.13 -20 49 36.5     n.a.    n.a.  10.4269653090504  21.2814199   50.5702 /T    4.4468   Sgr
 2020-Nov-30 00:00     19 58 50.73 -20 48 34.8     n.a.    n.a.  10.4391729989025  20.9916694   49.6509 /T    4.3870   Sgr
 2020-Dec-01 00:00     19 59 14.58 -20 47 32.2     n.a.    n.a.  10.4512119105850  20.6969678   48.7324 /T    4.3263   Sgr
 2020-Dec-02 00:00     19 59 38.69 -20 46 28.6     n.a.    n.a.  10.4630791940689  20.3973448   47.8145 /T    4.2645   Sgr
 2020-Dec-03 00:00     20 00 03.05 -20 45 24.1     n.a.    n.a.  10.4747720110099  20.0928112   46.8974 /T    4.2016   Sgr
 2020-Dec-04 00:00     20 00 27.66 -20 44 18.7     n.a.    n.a.  10.4862875239425  19.7833594   45.9809 /T    4.1378   Sgr
 2020-Dec-05 00:00     20 00 52.51 -20 43 12.4     n.a.    n.a.  10.4976228861322  19.4689651   45.0650 /T    4.0730   Sgr
 2020-Dec-06 00:00     20 01 17.59 -20 42 05.2     n.a.    n.a.  10.5087752325718  19.1495899   44.1497 /T    4.0073   Sgr
 2020-Dec-07 00:00     20 01 42.92 -20 40 57.0     n.a.    n.a.  10.5197416724899  18.8251835   43.2351 /T    3.9406   Sgr
 2020-Dec-08 00:00     20 02 08.47 -20 39 48.0     n.a.    n.a.  10.5305192838901  18.4956889   42.3210 /T    3.8730   Sgr
 2020-Dec-09 00:00     20 02 34.25 -20 38 38.1     n.a.    n.a.  10.5411051112047  18.1610485   41.4075 /T    3.8044   Sgr
 2020-Dec-10 00:00     20 03 00.24 -20 37 27.3     n.a.    n.a.  10.5514961680709  17.8212154   40.4945 /T    3.7350   Sgr
 2020-Dec-11 00:00     20 03 26.46 -20 36 15.6     n.a.    n.a.  10.5616894481263  17.4761704   39.5821 /T    3.6647   Sgr
 2020-Dec-12 00:00     20 03 52.88 -20 35 03.1     n.a.    n.a.  10.5716819467346  17.1259423   38.6703 /T    3.5935   Sgr
 2020-Dec-13 00:00     20 04 19.52 -20 33 49.6     n.a.    n.a.  10.5814706947008  16.7706278   37.7590 /T    3.5215   Sgr
 2020-Dec-14 00:00     20 04 46.35 -20 32 35.4     n.a.    n.a.  10.5910528010246  16.4104014   36.8483 /T    3.4486   Sgr
 2020-Dec-15 00:00     20 05 13.38 -20 31 20.3     n.a.    n.a.  10.6004254969728  16.0455094   35.9382 /T    3.3750   Sgr
 2020-Dec-16 00:00     20 05 40.60 -20 30 04.3     n.a.    n.a.  10.6095861712591  15.6762457   35.0286 /T    3.3006   Sgr
 2020-Dec-17 00:00     20 06 08.01 -20 28 47.5     n.a.    n.a.  10.6185323883207  15.3029192   34.1197 /T    3.2254   Sgr
 2020-Dec-18 00:00     20 06 35.59 -20 27 29.9     n.a.    n.a.  10.6272618877068  14.9258232   33.2114 /T    3.1494   Sgr
 2020-Dec-19 00:00     20 07 03.35 -20 26 11.6     n.a.    n.a.  10.6357725688754  14.5452160   32.3038 /T    3.0728   Sgr
